{
  "norad_id": 56378,
  "name": "STARLINK-6191",
  "history": [
    {
      "epoch": "2026-03-28T16:56:54.487680Z",
      "apogee_km": 486.1174534863412,
      "perigee_km": 484.9953768868272,
      "latitude_deg": 1.4177735872331616e-05,
      "longitude_deg": 9.663098387552747,
      "height_km": 485.3007443860944,
      "semi_major_axis_km": 6863.693415186584,
      "eccentricity": 8.174e-05,
      "inclination_deg": 43.0018,
      "raan_deg": 90.0129,
      "arg_perigee_deg": 273.2853,
      "mean_anomaly_deg": 86.7905,
      "mean_motion_rev_day": 15.26743035
    }
  ]
}