{"fetched_at":"2026-03-30T06:02:59Z","count":15439,"tles":[{"name":"STARLINK-6191","line1":"1 56378U 23061E   26087.70618620  .00000518  00000+0  28994-4 0  9993","line2":"2 56378  43.0018  90.0129 0000817 273.2853  86.7905 15.26743035159662","category":"Starlink"}]}